[
    {
        "Altitude(m)": 604221.2006348136,
        "Argument of Periapsis(deg)": 0.0,
        "Eccentricity": 0.0,
        "Inclination(deg)": 60.0,
        "Latitude(deg)": 14.11722479768993,
        "Longitude(deg)": -141.66582870224866,
        "Mean Anomaly(deg)": 16.363599999999984,
        "RAAN(deg)": 310.0,
        "Satellite Name": "Test1 1365",
        "Satellite Number": 1365,
        "Semi-Major Axis(m)": 6980739.136638005,
        "Time(s)": 0
    },
    {
        "Altitude(m)": 604235.3413557339,
        "Argument of Periapsis(deg)": 0.00010418945913296404,
        "Eccentricity": 0.0,
        "Inclination(deg)": 60.0,
        "Latitude(deg)": 14.651621208650182,
        "Longitude(deg)": -141.37738109408463,
        "Mean Anomaly(deg)": 16.983706145461838,
        "RAAN(deg)": 309.99957995086027,
        "Satellite Name": "Test1 1365",
        "Satellite Number": 1365,
        "Semi-Major Axis(m)": 6980739.136638005,
        "Time(s)": 10
    }
]